{
  "type": "FeatureCollection",
  "features": [
    {
      "type": "Feature",
      "properties": {
        "norad_id": 66913,
        "name": "2025-284A",
        "group": "last-30-days",
        "lat": 23.62585702872579,
        "lon": -52.747603024840245,
        "alt_km": 503.59105078736775,
        "timestamp": "2025-12-11T08:58:25.857019+00:00",
        "meta_object_name": "2025-284A",
        "meta_object_id": "2025-284A",
        "meta_epoch": "2025-12-11T05:07:36.722208",
        "meta_mean_motion": 15.18919324,
        "meta_eccentricity": 0.001201,
        "meta_inclination": 80.4047,
        "meta_ra_of_asc_node": 131.6993,
        "meta_arg_of_pericenter": 209.2547,
        "meta_mean_anomaly": 150.8009,
        "meta_ephemeris_type": 0,
        "meta_classification_type": "U",
        "meta_norad_cat_id": 66913,
        "meta_element_set_no": 999,
        "meta_rev_at_epoch": 89,
        "meta_bstar": 0.00076013,
        "meta_mean_motion_dot": 0.00015934,
        "meta_mean_motion_ddot": 0,
        "tle_line1": "1 66913U 25284A   25345.21361947  .00015934  00000+0  76013-3 0  9999",
        "tle_line2": "2 66913  80.4047 131.6993 0012010 209.2547 150.8009 15.18919324   898"
      },
      "geometry": {
        "type": "Point",
        "coordinates": [
          -52.747603024840245,
          23.62585702872579
        ]
      }
    },
    {
      "type": "Feature",
      "properties": {
        "norad_id": 66914,
        "name": "2025-284B",
        "group": "last-30-days",
        "lat": 21.274869015840636,
        "lon": -52.279603755965525,
        "alt_km": 509.4093737940884,
        "timestamp": "2025-12-11T08:58:25.857029+00:00",
        "meta_object_name": "2025-284B",
        "meta_object_id": "2025-284B",
        "meta_epoch": "2025-12-11T05:06:58.411584",
        "meta_mean_motion": 15.18871742,
        "meta_eccentricity": 0.0008259,
        "meta_inclination": 80.4056,
        "meta_ra_of_asc_node": 131.7006,
        "meta_arg_of_pericenter": 251.8131,
        "meta_mean_anomaly": 108.2198,
        "meta_ephemeris_type": 0,
        "meta_classification_type": "U",
        "meta_norad_cat_id": 66914,
        "meta_element_set_no": 999,
        "meta_rev_at_epoch": 89,
        "meta_bstar": 0.0007344,
        "meta_mean_motion_dot": 0.00015357,
        "meta_mean_motion_ddot": 0,
        "tle_line1": "1 66914U 25284B   25345.21317606  .00015357  00000+0  73440-3 0  9993",
        "tle_line2": "2 66914  80.4056 131.7006 0008259 251.8131 108.2198 15.18871742   894"
      },
      "geometry": {
        "type": "Point",
        "coordinates": [
          -52.279603755965525,
          21.274869015840636
        ]
      }
    },
    {
      "type": "Feature",
      "properties": {
        "norad_id": 66915,
        "name": "HULIANWANG DIGUI-105",
        "group": "last-30-days",
        "lat": 43.15760833083277,
        "lon": -109.08278537457825,
        "alt_km": 874.4984619582929,
        "timestamp": "2025-12-11T08:58:25.857039+00:00",
        "meta_object_name": "HULIANWANG DIGUI-105",
        "meta_object_id": "2025-285A",
        "meta_epoch": "2025-12-11T05:00:27.272736",
        "meta_mean_motion": 14.05467524,
        "meta_eccentricity": 0.0008125,
        "meta_inclination": 50.0035,
        "meta_ra_of_asc_node": 123.5166,
        "meta_arg_of_pericenter": 277.5008,
        "meta_mean_anomaly": 82.4974,
        "meta_ephemeris_type": 0,
        "meta_classification_type": "U",
        "meta_norad_cat_id": 66915,
        "meta_element_set_no": 999,
        "meta_rev_at_epoch": 69,
        "meta_bstar": 0.00020268,
        "meta_mean_motion_dot": 1.79e-06,
        "meta_mean_motion_ddot": 0,
        "tle_line1": "1 66915U 25285A   25345.20864899  .00000179  00000+0  20268-3 0  9991",
        "tle_line2": "2 66915  50.0035 123.5166 0008125 277.5008  82.4974 14.05467524   698"
      },
      "geometry": {
        "type": "Point",
        "coordinates": [
          -109.08278537457825,
          43.15760833083277
        ]
      }
    },
    {
      "type": "Feature",
      "properties": {
        "norad_id": 66916,
        "name": "HULIANWANG DIGUI-106",
        "group": "last-30-days",
        "lat": 42.73853203107554,
        "lon": -108.0278369838137,
        "alt_km": 873.4015963663905,
        "timestamp": "2025-12-11T08:58:25.857050+00:00",
        "meta_object_name": "HULIANWANG DIGUI-106",
        "meta_object_id": "2025-285B",
        "meta_epoch": "2025-12-11T05:00:12.919968",
        "meta_mean_motion": 14.05513814,
        "meta_eccentricity": 0.000696,
        "meta_inclination": 50.0046,
        "meta_ra_of_asc_node": 123.517,
        "meta_arg_of_pericenter": 272.2639,
        "meta_mean_anomaly": 87.7469,
        "meta_ephemeris_type": 0,
        "meta_classification_type": "U",
        "meta_norad_cat_id": 66916,
        "meta_element_set_no": 999,
        "meta_rev_at_epoch": 69,
        "meta_bstar": 0.00019384,
        "meta_mean_motion_dot": 1.65e-06,
        "meta_mean_motion_ddot": 0,
        "tle_line1": "1 66916U 25285B   25345.20848287  .00000165  00000+0  19384-3 0  9997",
        "tle_line2": "2 66916  50.0046 123.5170 0006960 272.2639  87.7469 14.05513814   694"
      },
      "geometry": {
        "type": "Point",
        "coordinates": [
          -108.0278369838137,
          42.73853203107554
        ]
      }
    },
    {
      "type": "Feature",
      "properties": {
        "norad_id": 66917,
        "name": "HULIANWANG DIGUI-107",
        "group": "last-30-days",
        "lat": 42.109917157047356,
        "lon": -106.53186701078393,
        "alt_km": 873.8959156831224,
        "timestamp": "2025-12-11T08:58:25.857060+00:00",
        "meta_object_name": "HULIANWANG DIGUI-107",
        "meta_object_id": "2025-285C",
        "meta_epoch": "2025-12-11T04:59:51.880704",
        "meta_mean_motion": 14.05579308,
        "meta_eccentricity": 0.0007571,
        "meta_inclination": 50.0009,
        "meta_ra_of_asc_node": 123.5125,
        "meta_arg_of_pericenter": 279.8924,
        "meta_mean_anomaly": 80.1127,
        "meta_ephemeris_type": 0,
        "meta_classification_type": "U",
        "meta_norad_cat_id": 66917,
        "meta_element_set_no": 999,
        "meta_rev_at_epoch": 69,
        "meta_bstar": 0.00019675,
        "meta_mean_motion_dot": 1.7e-06,
        "meta_mean_motion_ddot": 0,
        "tle_line1": "1 66917U 25285C   25345.20823936  .00000170  00000+0  19675-3 0  9991",
        "tle_line2": "2 66917  50.0009 123.5125 0007571 279.8924  80.1127 14.05579308   691"
      },
      "geometry": {
        "type": "Point",
        "coordinates": [
          -106.53186701078393,
          42.109917157047356
        ]
      }
    },
    {
      "type": "Feature",
      "properties": {
        "norad_id": 66918,
        "name": "HULIANWANG DIGUI-108",
        "group": "last-30-days",
        "lat": 40.98518321420289,
        "lon": -104.00157122659925,
        "alt_km": 872.6636290957895,
        "timestamp": "2025-12-11T08:58:25.857072+00:00",
        "meta_object_name": "HULIANWANG DIGUI-108",
        "meta_object_id": "2025-285D",
        "meta_epoch": "2025-12-11T04:59:15.724896",
        "meta_mean_motion": 14.05704466,
        "meta_eccentricity": 0.0006468,
        "meta_inclination": 50.0043,
        "meta_ra_of_asc_node": 123.512,
        "meta_arg_of_pericenter": 275.1488,
        "meta_mean_anomaly": 84.8679,
        "meta_ephemeris_type": 0,
        "meta_classification_type": "U",
        "meta_norad_cat_id": 66918,
        "meta_element_set_no": 999,
        "meta_rev_at_epoch": 69,
        "meta_bstar": 0.00019782,
        "meta_mean_motion_dot": 1.72e-06,
        "meta_mean_motion_ddot": 0,
        "tle_line1": "1 66918U 25285D   25345.20782089  .00000172  00000+0  19782-3 0  9996",
        "tle_line2": "2 66918  50.0043 123.5120 0006468 275.1488  84.8679 14.05704466   691"
      },
      "geometry": {
        "type": "Point",
        "coordinates": [
          -104.00157122659925,
          40.98518321420289
        ]
      }
    },
    {
      "type": "Feature",
      "properties": {
        "norad_id": 66919,
        "name": "HULIANWANG DIGUI-109",
        "group": "last-30-days",
        "lat": 40.8279440046536,
        "lon": -103.6596982252053,
        "alt_km": 873.924605868735,
        "timestamp": "2025-12-11T08:58:25.857083+00:00",
        "meta_object_name": "HULIANWANG DIGUI-109",
        "meta_object_id": "2025-285E",
        "meta_epoch": "2025-12-11T04:59:10.674816",
        "meta_mean_motion": 14.05715181,
        "meta_eccentricity": 0.0007833,
        "meta_inclination": 50.0054,
        "meta_ra_of_asc_node": 123.515,
        "meta_arg_of_pericenter": 286.8271,
        "meta_mean_anomaly": 73.1775,
        "meta_ephemeris_type": 0,
        "meta_classification_type": "U",
        "meta_norad_cat_id": 66919,
        "meta_element_set_no": 999,
        "meta_rev_at_epoch": 69,
        "meta_bstar": -1.6698e-06,
        "meta_mean_motion_dot": -1.55e-06,
        "meta_mean_motion_ddot": 0,
        "tle_line1": "1 66919U 25285E   25345.20776244 -.00000155  00000+0 -16698-5 0  9991",
        "tle_line2": "2 66919  50.0054 123.5150 0007833 286.8271  73.1775 14.05715181   697"
      },
      "geometry": {
        "type": "Point",
        "coordinates": [
          -103.6596982252053,
          40.8279440046536
        ]
      }
    }
  ]
}